{"type": "FeatureCollection", "features": [ {"type": "Feature", "properties": {"norad_id": 31619, "name": "FENGYUN 1C DEB", "group": "fengyun-1c-debris", "lat": 68.1229588700517, "lon": 17.008981878541977, "alt_km": 671.1468662466968, "timestamp": "2025-12-07T16:44:04.194556+00:00", "meta": {"OBJECT_NAME": "FENGYUN 1C DEB", "OBJECT_ID": "1999-025BZZ", "EPOCH": "2025-12-05T23:48:12.742560", "MEAN_MOTION": 14.84597723, "ECCENTRICITY": 0.00971954, "INCLINATION": 99.0707, "RA_OF_ASC_NODE": 171.625, "ARG_OF_PERICENTER": 315.2188, "MEAN_ANOMALY": 44.1206, "EPHEMERIS_TYPE": 0, "CLASSIFICATION_TYPE": "U", "NORAD_CAT_ID": 31619, "ELEMENT_SET_NO": 999, "REV_AT_EPOCH": 63388, "BSTAR": 0.007509256, "MEAN_MOTION_DOT": 0.00069561, "MEAN_MOTION_DDOT": 0}, "tle": {"line1": "1 31619U 99025BZZ 25339.99181415  .00069561  00000+0  75093-2 0  9997", "line2": "2 31619  99.0707 171.6250 0097195 315.2188  44.1206 14.84597723633880"}}, "geometry": {"type": "Point", "coordinates": [17.008981878541977, 68.1229588700517]}}, {"type": "Feature", "properties": {"norad_id": 31620, "name": "FENGYUN 1C DEB", "group": "fengyun-1c-debris", "lat": -57.675729534884525, "lon": -128.70382283201695, "alt_km": 790.6395288022941, "timestamp": "2025-12-07T16:44:04.194567+00:00", "meta": {"OBJECT_NAME": "FENGYUN 1C DEB", "OBJECT_ID": "1999-025CAA", "EPOCH": "2025-11-29T12:06:32.784768", "MEAN_MOTION": 14.36942197, "ECCENTRICITY": 0.0021449, "INCLINATION": 98.8876, "RA_OF_ASC_NODE": 57.1565, "ARG_OF_PERICENTER": 84.3152, "MEAN_ANOMALY": 276.0479, "EPHEMERIS_TYPE": 0, "CLASSIFICATION_TYPE": "U", "NORAD_CAT_ID": 31620, "ELEMENT_SET_NO": 999, "REV_AT_EPOCH": 65654, "BSTAR": 0.0022206597, "MEAN_MOTION_DOT": 6.551e-05, "MEAN_MOTION_DDOT": 0}, "tle": {"line1": "1 31620U 99025CAA 25333.50454612  .00006551  00000+0  22207-2 0  9991", "line2": "2 31620  98.8876  57.1565 0021449  84.3152 276.0479 14.36942197656549"}}, "geometry": {"type": "Point", "coordinates": [-128.70382283201695, -57.675729534884525]}}, {"type": "Feature", "properties": {"norad_id": 31622, "name": "FENGYUN 1C DEB", "group": "fengyun-1c-debris", "lat": -44.527544823101266, "lon": -112.43703735756732, "alt_km": 782.2031191644819, "timestamp": "2025-12-07T16:44:04.194577+00:00", "meta": {"OBJECT_NAME": "FENGYUN 1C DEB", "OBJECT_ID": "1999-025CAC", "EPOCH": "2025-12-05T05:21:11.340288", "MEAN_MOTION": 14.3704993, "ECCENTRICITY": 0.00149936, "INCLINATION": 98.8174, "RA_OF_ASC_NODE": 73.811, "ARG_OF_PERICENTER": 6.6483, "MEAN_ANOMALY": 25.5442, "EPHEMERIS_TYPE": 0, "CLASSIFICATION_TYPE": "U", "NORAD_CAT_ID": 31622, "ELEMENT_SET_NO": 999, "REV_AT_EPOCH": 95664, "BSTAR": 0.0039408994, "MEAN_MOTION_DOT": 0.00011682, "MEAN_MOTION_DDOT": 0}, "tle": {"line1": "1 31622U 99025CAC 25339.22304792  .00011682  00000+0  39409-2 0  9994", "line2": "2 31622  98.8174  73.8110 0014993   6.6483  25.5442 14.37049930956648"}}, "geometry": {"type": "Point", "coordinates": [-112.43703735756732, -44.527544823101266]}}, {"type": "Feature", "properties": {"norad_id": 31623, "name": "FENGYUN 1C DEB", "group": "fengyun-1c-debris", "lat": 69.14276382125882, "lon": 173.62873904448264, "alt_km": 855.0818102879275, "timestamp": "2025-12-07T16:44:04.194587+00:00", "meta": {"OBJECT_NAME": "FENGYUN 1C DEB", "OBJECT_ID": "1999-025CAD", "EPOCH": "2025-12-02T20:02:22.350624", "MEAN_MOTION": 13.82580933, "ECCENTRICITY": 0.01951152, "INCLINATION": 97.6304, "RA_OF_ASC_NODE": 190.283, "ARG_OF_PERICENTER": 33.7651, "MEAN_ANOMALY": 327.5758, "EPHEMERIS_TYPE": 0, "CLASSIFICATION_TYPE": "U", "NORAD_CAT_ID": 31623, "ELEMENT_SET_NO": 999, "REV_AT_EPOCH": 57783, "BSTAR": 0.00047153491, "MEAN_MOTION_DOT": 5.61e-06, "MEAN_MOTION_DDOT": 0}, "tle": {"line1": "1 31623U 99025CAD 25336.83498091  .00000561  00000+0  47153-3 0  9995", "line2": "2 31623  97.6304 190.2830 0195115  33.7651 327.5758 13.82580933577835"}}, "geometry": {"type": "Point", "coordinates": [173.62873904448264, 69.14276382125882]}}, {"type": "Feature", "properties": {"norad_id": 31625, "name": "FENGYUN 1C DEB", "group": "fengyun-1c-debris", "lat": -53.059999839778484, "lon": -124.4501033481075, "alt_km": 812.6199816914013, "timestamp": "2025-12-07T16:44:04.194598+00:00", "meta": {"OBJECT_NAME": "FENGYUN 1C DEB", "OBJECT_ID": "1999-025CAF", "EPOCH": "2025-12-06T05:08:30.831072", "MEAN_MOTION": 14.55382649, "ECCENTRICITY": 0.01497151, "INCLINATION": 98.8067, "RA_OF_ASC_NODE": 65.8852, "ARG_OF_PERICENTER": 35.5784, "MEAN_ANOMALY": 353.3737, "EPHEMERIS_TYPE": 0, "CLASSIFICATION_TYPE": "U", "NORAD_CAT_ID": 31625, "ELEMENT_SET_NO": 999, "REV_AT_EPOCH": 98298, "BSTAR": 0.00026037258, "MEAN_MOTION_DOT": 1.255e-05, "MEAN_MOTION_DDOT": 0}, "tle": {"line1": "1 31625U 99025CAF 25340.21424573  .00001255  00000+0  26037-3 0  9997", "line2": "2 31625  98.8067  65.8852 0149715  35.5784 353.3737 14.55382649982984"}}, "geometry": {"type": "Point", "coordinates": [-124.4501033481075, -53.059999839778484]}}, {"type": "Feature", "properties": {"norad_id": 31627, "name": "FENGYUN 1C DEB", "group": "fengyun-1c-debris", "lat": 70.92143548286641, "lon": -124.6511193980194, "alt_km": 748.6484325103529, "timestamp": "2025-12-07T16:44:04.194608+00:00", "meta": {"OBJECT_NAME": "FENGYUN 1C DEB", "OBJECT_ID": "1999-025CAH", "EPOCH": "2025-11-26T09:13:22.975680", "MEAN_MOTION": 14.35408996, "ECCENTRICITY": 0.00515931, "INCLINATION": 98.5313, "RA_OF_ASC_NODE": 18.4415, "ARG_OF_PERICENTER": 201.9005, "MEAN_ANOMALY": 157.9975, "EPHEMERIS_TYPE": 0, "CLASSIFICATION_TYPE": "U", "NORAD_CAT_ID": 31627, "ELEMENT_SET_NO": 999, "REV_AT_EPOCH": 64532, "BSTAR": 0.0013473839, "MEAN_MOTION_DOT": 3.885e-05, "MEAN_MOTION_DDOT": 0}, "tle": {"line1": "1 31627U 99025CAH 25330.38429370  .00003885  00000+0  13474-2 0  9997", "line2": "2 31627  98.5313  18.4415 0051593 201.9005 157.9975 14.35408996645325"}}, "geometry": {"type": "Point", "coordinates": [-124.6511193980194, 70.92143548286641]}}, {"type": "Feature", "properties": {"norad_id": 31628, "name": "FENGYUN 1C DEB", "group": "fengyun-1c-debris", "lat": -50.77615215523535, "lon": -0.48855427156508624, "alt_km": 822.4869957056435, "timestamp": "2025-12-07T16:44:04.194618+00:00", "meta": {"OBJECT_NAME": "FENGYUN 1C DEB", "OBJECT_ID": "1999-025CAJ", "EPOCH": "2025-12-06T20:33:50.325408", "MEAN_MOTION": 13.86787924, "ECCENTRICITY": 0.01695973, "INCLINATION": 102.2697, "RA_OF_ASC_NODE": 193.8742, "ARG_OF_PERICENTER": 234.2442, "MEAN_ANOMALY": 124.2829, "EPHEMERIS_TYPE": 0, "CLASSIFICATION_TYPE": "U", "NORAD_CAT_ID": 31628, "ELEMENT_SET_NO": 999, "REV_AT_EPOCH": 93218, "BSTAR": 0.0035539684, "MEAN_MOTION_DOT": 4.576e-05, "MEAN_MOTION_DDOT": 0}, "tle": {"line1": "1 31628U 99025CAJ 25340.85683247  .00004576  00000+0  35540-2 0  9992", "line2": "2 31628 102.2697 193.8742 0169597 234.2442 124.2829 13.86787924932187"}}, "geometry": {"type": "Point", "coordinates": [-0.48855427156508624, -50.77615215523535]}}, {"type": "Feature", "properties": {"norad_id": 31629, "name": "FENGYUN 1C DEB", "group": "fengyun-1c-debris", "lat": -21.78738050773009, "lon": 30.77093637202555, "alt_km": 813.6688754657689, "timestamp": "2025-12-07T16:44:04.194628+00:00", "meta": {"OBJECT_NAME": "FENGYUN 1C DEB", "OBJECT_ID": "1999-025CAK", "EPOCH": "2025-12-06T01:47:46.671072", "MEAN_MOTION": 14.14535625, "ECCENTRICITY": 0.01039696, "INCLINATION": 102.1333, "RA_OF_ASC_NODE": 23.6411, "ARG_OF_PERICENTER": 44.3764, "MEAN_ANOMALY": 316.5671, "EPHEMERIS_TYPE": 0, "CLASSIFICATION_TYPE": "U", "NORAD_CAT_ID": 31629, "ELEMENT_SET_NO": 999, "REV_AT_EPOCH": 94352, "BSTAR": 0.0034546989, "MEAN_MOTION_DOT": 6.92e-05, "MEAN_MOTION_DDOT": 0}, "tle": {"line1": "1 31629U 99025CAK 25340.07484573  .00006920  00000+0  34547-2 0  9999", "line2": "2 31629 102.1333  23.6411 0103969  44.3764 316.5671 14.14535625943527"}}, "geometry": {"type": "Point", "coordinates": [30.77093637202555, -21.78738050773009]}}, {"type": "Feature", "properties": {"norad_id": 31630, "name": "FENGYUN 1C DEB", "group": "fengyun-1c-debris", "lat": 81.90013895992027, "lon": 57.100487991548526, "alt_km": 512.9267706475075, "timestamp": "2025-12-07T16:44:04.194638+00:00", "meta": {"OBJECT_NAME": "FENGYUN 1C DEB", "OBJECT_ID": "1999-025CAL", "EPOCH": "2025-11-28T17:02:46.410432", "MEAN_MOTION": 15.05651013, "ECCENTRICITY": 0.0167781, "INCLINATION": 98.0901, "RA_OF_ASC_NODE": 139.5424, "ARG_OF_PERICENTER": 43.6541, "MEAN_ANOMALY": 317.7815, "EPHEMERIS_TYPE": 0, "CLASSIFICATION_TYPE": "U", "NORAD_CAT_ID": 31630, "ELEMENT_SET_NO": 999, "REV_AT_EPOCH": 98379, "BSTAR": 0.00077583997, "MEAN_MOTION_DOT": 0.00015356, "MEAN_MOTION_DDOT": 0}, "tle": {"line1": "1 31630U 99025CAL 25332.71025938  .00015356  00000+0  77584-3 0  9991", "line2": "2 31630  98.0901 139.5424 0167781  43.6541 317.7815 15.05651013983798"}}, "geometry": {"type": "Point", "coordinates": [57.100487991548526, 81.90013895992027]}}, {"type": "Feature", "properties": {"norad_id": 31631, "name": "FENGYUN 1C DEB", "group": "fengyun-1c-debris", "lat": 10.865062573856424, "lon": -110.04157920456406, "alt_km": 618.4017559892636, "timestamp": "2025-12-07T16:44:04.194648+00:00", "meta": {"OBJECT_NAME": "FENGYUN 1C DEB", "OBJECT_ID": "1999-025CAM", "EPOCH": "2025-12-05T12:25:42.360960", "MEAN_MOTION": 14.70301121, "ECCENTRICITY": 0.00647998, "INCLINATION": 99.3461, "RA_OF_ASC_NODE": 249.2744, "ARG_OF_PERICENTER": 354.7316, "MEAN_ANOMALY": 5.3196, "EPHEMERIS_TYPE": 0, "CLASSIFICATION_TYPE": "U", "NORAD_CAT_ID": 31631, "ELEMENT_SET_NO": 999, "REV_AT_EPOCH": 63866, "BSTAR": 0.015117461, "MEAN_MOTION_DOT": 0.00095487, "MEAN_MOTION_DDOT": 0}, "tle": {"line1": "1 31631U 99025CAM 25339.51785140  .00095487  00000+0  15117-1 0  9990", "line2": "2 31631  99.3461 249.2744 0064799 354.7316   5.3196 14.70301121638667"}}, "geometry": {"type": "Point", "coordinates": [-110.04157920456406, 10.865062573856424]}}]}